{
  "type": "FeatureCollection",
  "features": [
    {
      "type": "Feature",
      "properties": {
        "type": "filtered"
      },
      "geometry": {
        "coordinates": [
          [
            116.39528754617511,
            39.988641625819355
          ],
          [
            116.39537089092893,
            39.988622888716854
          ],
          [
            116.39561627915565,
            39.98855119031845
          ],
          [
            116.39576025846833,
            39.98855475227601
          ],
          [
            116.39594668914042,
            39.98856154370376
          ],
          [
            116.39615648935825,
            39.988638264334014
          ],
          [
            116.39645232028711,
            39.988737010592864
          ],
          [
            116.39685689989827,
            39.98867941022582
          ],
          [
            116.39714378395563,
            39.98867673268085
          ],
          [
            116.39743222716662,
            39.988634691762186
          ],
          [
            116.39770764633911,
            39.98870457640616
          ],
          [
            116.39800646900527,
            39.98878373779454
          ],
          [
            116.39818251836621,
            39.988743123664975
          ],
          [
            116.3984044234215,
            39.988720107482635
          ],
          [
            116.39858669192371,
            39.98870449466631
          ],
          [
            116.39872908767472,
            39.98878913925207
          ],
          [
            116.39893890906758,
            39.98887161264737
          ],
          [
            116.39908277937933,
            39.989075654437066
          ],
          [
            116.39922157009727,
            39.98917792495137
          ],
          [
            116.39930001855947,
            39.98937102035839
          ],
          [
            116.39936685971134,
            39.989551295637604
          ],
          [
            116.3992609765828,
            39.989755804396026
          ],
          [
            116.39926887482406,
            39.989994803965324
          ],
          [
            116.39918263075211,
            39.99026078254949
          ],
          [
            116.39916451768104,
            39.99054266349474
          ],
          [
            116.39921888276217,
            39.990712116450815
          ],
          [
            116.39931321957025,
            39.99085093218524
          ],
          [
            116.39937051643535,
            39.99088727708492
          ],
          [
            116.39953595409817,
            39.99093112273037
          ],
          [
            116.39974174607428,
            39.990920602758436
          ],
          [
            116.39986360427649,
            39.990855696043525
          ],
          [
            116.40008045567242,
            39.99079825598661
          ],
          [
            116.40025410263459,
            39.99082543755293
          ],
          [
            116.40049403177251,
            39.990848559631544
          ],
          [
            116.40060695191754,
            39.99080767863724
          ],
          [
            116.40076570968536,
            39.990776089504614
          ],
          [
            116.40093487808417,
            39.990815957101404
          ],
          [
            116.40110409017588,
            39.99085527875948
          ],
          [
            116.40121364489187,
            39.99082730449127
          ]
        ],
        "type": "LineString"
      }
    }
  ]
}