{
    "type": "FeatureCollection",
    "features": [
      {
        "type": "Feature",
        "properties": {},
        "geometry": {
          "coordinates": [
            [
              116.39528596681225,
              39.98866636224827
            ],
            [
              116.3955155897089,
              39.988490431483086
            ],
            [
              116.39579924152491,
              39.988397291483466
            ],
            [
              116.39574521260772,
              39.98852147812198
            ],
            [
              116.39597483550443,
              39.98851112924365
            ],
            [
              116.39617744394354,
              39.988728455350355
            ],
            [
              116.39652863190662,
              39.9889354319524
            ],
            [
              116.39698787770214,
              39.9885318269979
            ],
            [
              116.39709593553664,
              39.98861461795232
            ],
            [
              116.39739309458031,
              39.988438687054696
            ],
            [
              116.39760921024936,
              39.988800897232835
            ],
            [
              116.39793338375063,
              39.98896647838825
            ],
            [
              116.39789286206326,
              39.988645664534744
            ],
            [
              116.39823054279651,
              39.98861461795232
            ],
            [
              116.39840613677598,
              39.988490431483086
            ],
            [
              116.39850068738053,
              39.98878019956007
            ],
            [
              116.39886538257144,
              39.98879054839682
            ],
            [
              116.39883836811379,
              39.98920450059671
            ],
            [
              116.39912201992774,
              39.98891473432042
            ],
            [
              116.39918955607482,
              39.989245895714106
            ],
            [
              116.39950022234632,
              39.98931833701957
            ],
            [
              116.3990139620933,
              39.989504614373146
            ],
            [
              116.39937865728422,
              39.98976333207506
            ],
            [
              116.3990139620933,
              39.99004274606531
            ],
            [
              116.39902746932307,
              39.99036355341153
            ],
            [
              116.39931112113914,
              39.99037390200837
            ],
            [
              116.3994867151186,
              39.9905498279218
            ],
            [
              116.39905448378278,
              39.99081889020766
            ],
            [
              116.39929761390937,
              39.99105690595502
            ],
            [
              116.39955425126567,
              39.990974117967056
            ],
            [
              116.39955425126567,
              39.99075679900503
            ],
            [
              116.39993245368629,
              39.99066366209556
            ],
            [
              116.40004051152084,
              39.99088098135391
            ],
            [
              116.40039169948182,
              39.99091202690545
            ],
            [
              116.40029714887714,
              39.9907050562926
            ],
            [
              116.40056729346128,
              39.99066366209556
            ],
            [
              116.40075639467267,
              39.99088098135391
            ],
            [
              116.40095900311178,
              39.99095342095276
            ],
            [
              116.40110758263364,
              39.99076714754233
            ]
          ],
          "type": "LineString"
        }
      }
    ]
  }
