{
    "type": "FeatureCollection",
    "features": [
        {
            "type": "Feature",
            "properties": {},
            "geometry": {
                "coordinates": [
                    [
                        116.39528596681225,
                        39.98858357135654
                    ],
                    [
                        116.39723100782862,
                        39.988707757655675
                    ],
                    [
                        116.39829807894154,
                        39.98873880419575
                    ],
                    [
                        116.39860874521503,
                        39.98881124606643
                    ],
                    [
                        116.39889239703109,
                        39.98892508313679
                    ],
                    [
                        116.39906799101055,
                        39.98912171035724
                    ],
                    [
                        116.39920306330475,
                        39.98934938327429
                    ],
                    [
                        116.3992300777623,
                        39.98970123992541
                    ],
                    [
                        116.39920306330475,
                        39.99001170017118
                    ],
                    [
                        116.39924358499206,
                        39.99037390200837
                    ],
                    [
                        116.3992300777623,
                        39.99082923873556
                    ],
                    [
                        116.40109407540382,
                        39.99082923873556
                    ]
                ],
                "type": "LineString"
            }
        }
    ]
}
